start=new Date('2022-06-08T00:00:00.000Z').valueOf();
sats=[{"BSTAR":"-0.02888500000000","MEAN_ANOMALY":"278.6869","CLASSIFICATION_TYPE":"U","MEAN_MOTION_DOT":"-0.00585623","REV_AT_EPOCH":"130","APOAPSIS":"507.690","MEAN_MOTION":"15.19797470","REF_FRAME":"TEME","COUNTRY_CODE":"US","PERIAPSIS":"505.218","CENTER_NAME":"EARTH","TLE_LINE1":"1 52102U 22029Q   22158.91667824 -.00585623  00000-0 -28885-1 0  9999","ARG_OF_PERICENTER":"40.1138","PERIOD":"94.749","NORAD_CAT_ID":"52102","DECAY_DATE":null,"INCLINATION":"53.2177","TLE_LINE2":"2 52102  53.2177 113.0674 0001795  40.1138 278.6869 15.19797470  1308","EPHEMERIS_TYPE":"0","LAUNCH_DATE":"2022-03-19","SEMIMAJOR_AXIS":"6884.589","RCS_SIZE":"LARGE","OBJECT_ID":"2022-029Q","MEAN_MOTION_DDOT":"0.0000000000000","ELEMENT_SET_NO":"999","ECCENTRICITY":"0.00017950","TIME_SYSTEM":"UTC","RA_OF_ASC_NODE":"113.0674","MEAN_ELEMENT_THEORY":"SGP4","EPOCH":"2022-06-07T22:00:00.999936","OBJECT_TYPE":"PAYLOAD","SITE":"AFETR","OBJECT_NAME":"STARLINK-3709","GP_ID":"205598143","FILE":"3485136"},{"INCLINATION":"53.2174","SEMIMAJOR_AXIS":"6897.941","LAUNCH_DATE":"2022-03-19","EPHEMERIS_TYPE":"0","TLE_LINE2":"2 52103  53.2174 112.8754 0001835  44.4929 183.9250 15.15387012  1307","TLE_LINE1":"1 52103U 22029R   22158.91667824 -.00722362  00000-0 -40603-1 0  9995","ARG_OF_PERICENTER":"44.4929","CENTER_NAME":"EARTH","DECAY_DATE":null,"NORAD_CAT_ID":"52103","PERIOD":"95.025","COUNTRY_CODE":"US","REF_FRAME":"TEME","MEAN_MOTION":"15.15387012","PERIAPSIS":"518.540","APOAPSIS":"521.072","MEAN_MOTION_DOT":"-0.00722362","REV_AT_EPOCH":"130","CLASSIFICATION_TYPE":"U","BSTAR":"-0.04060300000000","MEAN_ANOMALY":"183.9250","GP_ID":"205597911","FILE":"3485136","EPOCH":"2022-06-07T22:00:00.999936","MEAN_ELEMENT_THEORY":"SGP4","RA_OF_ASC_NODE":"112.8754","OBJECT_NAME":"STARLINK-3705","SITE":"AFETR","OBJECT_TYPE":"PAYLOAD","ELEMENT_SET_NO":"999","ECCENTRICITY":"0.00018350","TIME_SYSTEM":"UTC","RCS_SIZE":"LARGE","MEAN_MOTION_DDOT":"0.0000000000000","OBJECT_ID":"2022-029R"},{"OBJECT_ID":"2022-029T","MEAN_MOTION_DDOT":"0.0000000000000","RCS_SIZE":"LARGE","TIME_SYSTEM":"UTC","ECCENTRICITY":"0.00018460","ELEMENT_SET_NO":"999","OBJECT_NAME":"STARLINK-3706","SITE":"AFETR","OBJECT_TYPE":"PAYLOAD","MEAN_ELEMENT_THEORY":"SGP4","RA_OF_ASC_NODE":"112.8806","EPOCH":"2022-06-07T22:00:00.999936","FILE":"3485136","GP_ID":"205598447","MEAN_MOTION_DOT":"-0.00722629","REV_AT_EPOCH":"130","CLASSIFICATION_TYPE":"U","BSTAR":"-0.04022300000000","MEAN_ANOMALY":"215.4716","APOAPSIS":"520.038","PERIAPSIS":"517.491","MEAN_MOTION":"15.15730199","COUNTRY_CODE":"US","REF_FRAME":"TEME","NORAD_CAT_ID":"52105","PERIOD":"95.004","DECAY_DATE":null,"CENTER_NAME":"EARTH","TLE_LINE1":"1 52105U 22029T   22158.91667824 -.00722629  00000-0 -40223-1 0  9991","ARG_OF_PERICENTER":"42.3210","LAUNCH_DATE":"2022-03-19","SEMIMAJOR_AXIS":"6896.900","EPHEMERIS_TYPE":"0","TLE_LINE2":"2 52105  53.2174 112.8806 0001846  42.3210 215.4716 15.15730199  1305","INCLINATION":"53.2174"},{"PERIAPSIS":"538.467","MEAN_MOTION":"15.08850277","REF_FRAME":"TEME","COUNTRY_CODE":"US","MEAN_ANOMALY":"131.9977","BSTAR":"0.00068831000000","CLASSIFICATION_TYPE":"U","MEAN_MOTION_DOT":"0.00010686","REV_AT_EPOCH":"130","APOAPSIS":"540.961","TLE_LINE2":"2 52106  53.2162 122.7437 0001802  72.0555 131.9977 15.08850277  1300","LAUNCH_DATE":"2022-03-19","SEMIMAJOR_AXIS":"6917.849","EPHEMERIS_TYPE":"0","INCLINATION":"53.2162","PERIOD":"95.437","NORAD_CAT_ID":"52106","DECAY_DATE":null,"CENTER_NAME":"EARTH","ARG_OF_PERICENTER":"72.0555","TLE_LINE1":"1 52106U 22029U   22158.91667824  .00010686  00000-0  68831-3 0  9990","TIME_SYSTEM":"UTC","ELEMENT_SET_NO":"999","ECCENTRICITY":"0.00018020","OBJECT_ID":"2022-029U","MEAN_MOTION_DDOT":"0.0000000000000","RCS_SIZE":"LARGE","FILE":"3485136","GP_ID":"205598008","OBJECT_TYPE":"PAYLOAD","SITE":"AFETR","OBJECT_NAME":"STARLINK-3670","RA_OF_ASC_NODE":"122.7437","MEAN_ELEMENT_THEORY":"SGP4","EPOCH":"2022-06-07T22:00:00.999936"},{"MEAN_MOTION":"15.15973858","COUNTRY_CODE":"US","REF_FRAME":"TEME","PERIAPSIS":"516.714","REV_AT_EPOCH":"130","MEAN_MOTION_DOT":"-0.00722623","MEAN_ANOMALY":"240.3667","BSTAR":"-0.03994300000000","CLASSIFICATION_TYPE":"U","APOAPSIS":"519.337","INCLINATION":"53.2175","EPHEMERIS_TYPE":"0","LAUNCH_DATE":"2022-03-19","SEMIMAJOR_AXIS":"6896.161","TLE_LINE2":"2 52107  53.2175 112.8840 0001902  38.6040 240.3667 15.15973858  1301","CENTER_NAME":"EARTH","ARG_OF_PERICENTER":"38.6040","TLE_LINE1":"1 52107U 22029V   22158.91667824 -.00722623  00000-0 -39943-1 0  9994","NORAD_CAT_ID":"52107","PERIOD":"94.988","DECAY_DATE":null,"ELEMENT_SET_NO":"999","ECCENTRICITY":"0.00019020","TIME_SYSTEM":"UTC","RCS_SIZE":"LARGE","OBJECT_ID":"2022-029V","MEAN_MOTION_DDOT":"0.0000000000000","GP_ID":"205597808","FILE":"3485136","MEAN_ELEMENT_THEORY":"SGP4","RA_OF_ASC_NODE":"112.8840","EPOCH":"2022-06-07T22:00:00.999936","OBJECT_NAME":"STARLINK-3658","SITE":"AFETR","OBJECT_TYPE":"PAYLOAD"},{"TIME_SYSTEM":"UTC","ECCENTRICITY":"0.00018860","ELEMENT_SET_NO":"999","MEAN_MOTION_DDOT":"0.0000000000000","OBJECT_ID":"2022-029W","RCS_SIZE":"LARGE","FILE":"3485136","GP_ID":"205598248","SITE":"AFETR","OBJECT_TYPE":"PAYLOAD","OBJECT_NAME":"STARLINK-3698","EPOCH":"2022-06-07T22:00:00.999936","RA_OF_ASC_NODE":"112.8785","MEAN_ELEMENT_THEORY":"SGP4","PERIAPSIS":"517.903","REF_FRAME":"TEME","COUNTRY_CODE":"US","MEAN_MOTION":"15.15585518","APOAPSIS":"520.504","BSTAR":"-0.04038300000000","MEAN_ANOMALY":"203.5910","CLASSIFICATION_TYPE":"U","MEAN_MOTION_DOT":"-0.00722524","REV_AT_EPOCH":"130","TLE_LINE2":"2 52108  53.2174 112.8785 0001886  41.7224 203.5910 15.15585518  1303","LAUNCH_DATE":"2022-03-19","SEMIMAJOR_AXIS":"6897.339","EPHEMERIS_TYPE":"0","INCLINATION":"53.2174","DECAY_DATE":null,"PERIOD":"95.013","NORAD_CAT_ID":"52108","ARG_OF_PERICENTER":"41.7224","TLE_LINE1":"1 52108U 22029W   22158.91667824 -.00722524  00000-0 -40383-1 0  9995","CENTER_NAME":"EARTH"},{"LAUNCH_DATE":"2022-03-19","SEMIMAJOR_AXIS":"6896.762","EPHEMERIS_TYPE":"0","TLE_LINE2":"2 52110  53.2174 112.8811 0001936  38.7271 223.5291 15.15775488  1301","INCLINATION":"53.2174","NORAD_CAT_ID":"52110","PERIOD":"95.001","DECAY_DATE":null,"CENTER_NAME":"EARTH","TLE_LINE1":"1 52110U 22029Y   22158.91667824 -.00722707  00000-0 -40175-1 0  9990","ARG_OF_PERICENTER":"38.7271","PERIAPSIS":"517.292","MEAN_MOTION":"15.15775488","COUNTRY_CODE":"US","REF_FRAME":"TEME","REV_AT_EPOCH":"130","MEAN_MOTION_DOT":"-0.00722707","BSTAR":"-0.04017500000000","CLASSIFICATION_TYPE":"U","MEAN_ANOMALY":"223.5291","APOAPSIS":"519.962","FILE":"3485136","GP_ID":"205598448","OBJECT_NAME":"STARLINK-3687","OBJECT_TYPE":"PAYLOAD","SITE":"AFETR","MEAN_ELEMENT_THEORY":"SGP4","RA_OF_ASC_NODE":"112.8811","EPOCH":"2022-06-07T22:00:00.999936","TIME_SYSTEM":"UTC","ECCENTRICITY":"0.00019360","ELEMENT_SET_NO":"999","OBJECT_ID":"2022-029Y","MEAN_MOTION_DDOT":"0.0000000000000","RCS_SIZE":"LARGE"},{"LAUNCH_DATE":"2022-03-19","SEMIMAJOR_AXIS":"6894.368","EPHEMERIS_TYPE":"0","TLE_LINE2":"2 52111  53.2177 112.8923 0001729  41.0636 287.5634 15.16565181  1300","INCLINATION":"53.2177","NORAD_CAT_ID":"52111","PERIOD":"94.951","DECAY_DATE":null,"CENTER_NAME":"EARTH","ARG_OF_PERICENTER":"41.0636","TLE_LINE1":"1 52111U 22029Z   22158.91667824 -.00722574  00000-0 -39270-1 0  9997","PERIAPSIS":"515.041","MEAN_MOTION":"15.16565181","COUNTRY_CODE":"US","REF_FRAME":"TEME","REV_AT_EPOCH":"130","MEAN_MOTION_DOT":"-0.00722574","BSTAR":"-0.03927000000000","MEAN_ANOMALY":"287.5634","CLASSIFICATION_TYPE":"U","APOAPSIS":"517.425","FILE":"3485136","GP_ID":"205598345","OBJECT_NAME":"STARLINK-3708","OBJECT_TYPE":"PAYLOAD","SITE":"AFETR","MEAN_ELEMENT_THEORY":"SGP4","RA_OF_ASC_NODE":"112.8923","EPOCH":"2022-06-07T22:00:00.999936","TIME_SYSTEM":"UTC","ECCENTRICITY":"0.00017290","ELEMENT_SET_NO":"999","OBJECT_ID":"2022-029Z","MEAN_MOTION_DDOT":"0.0000000000000","RCS_SIZE":"LARGE"},{"ELEMENT_SET_NO":"999","ECCENTRICITY":"0.00018430","TIME_SYSTEM":"UTC","RCS_SIZE":"LARGE","MEAN_MOTION_DDOT":"0.0000000000000","OBJECT_ID":"2022-029AA","GP_ID":"205598144","FILE":"3485136","EPOCH":"2022-06-07T22:00:00.999936","MEAN_ELEMENT_THEORY":"SGP4","RA_OF_ASC_NODE":"112.8868","OBJECT_NAME":"STARLINK-3734","SITE":"AFETR","OBJECT_TYPE":"PAYLOAD","COUNTRY_CODE":"US","REF_FRAME":"TEME","MEAN_MOTION":"15.16172318","PERIAPSIS":"516.153","APOAPSIS":"518.695","MEAN_MOTION_DOT":"-0.00722757","REV_AT_EPOCH":"130","MEAN_ANOMALY":"256.0706","BSTAR":"-0.03972500000000","CLASSIFICATION_TYPE":"U","INCLINATION":"53.2175","SEMIMAJOR_AXIS":"6895.559","LAUNCH_DATE":"2022-03-19","EPHEMERIS_TYPE":"0","TLE_LINE2":"2 52112  53.2175 112.8868 0001843  39.5218 256.0706 15.16172318  1309","ARG_OF_PERICENTER":"39.5218","TLE_LINE1":"1 52112U 22029AA  22158.91667824 -.00722757  00000-0 -39725-1 0  9996","CENTER_NAME":"EARTH","DECAY_DATE":null,"NORAD_CAT_ID":"52112","PERIOD":"94.976"},{"DECAY_DATE":null,"NORAD_CAT_ID":"52113","PERIOD":"94.927","ARG_OF_PERICENTER":"42.0817","TLE_LINE1":"1 52113U 22029AB  22158.91667824 -.00722445  00000-0 -38818-1 0  9993","CENTER_NAME":"EARTH","EPHEMERIS_TYPE":"0","LAUNCH_DATE":"2022-03-19","SEMIMAJOR_AXIS":"6893.166","TLE_LINE2":"2 52113  53.2177 112.8977 0001647  42.0817 319.1444 15.16961805 13848","INCLINATION":"53.2177","APOAPSIS":"516.166","REV_AT_EPOCH":"1384","MEAN_MOTION_DOT":"-0.00722445","BSTAR":"-0.03881800000000","CLASSIFICATION_TYPE":"U","MEAN_ANOMALY":"319.1444","PERIAPSIS":"513.896","COUNTRY_CODE":"US","REF_FRAME":"TEME","MEAN_MOTION":"15.16961805","OBJECT_NAME":"STARLINK-3736","SITE":"AFETR","OBJECT_TYPE":"PAYLOAD","EPOCH":"2022-06-07T22:00:00.999936","MEAN_ELEMENT_THEORY":"SGP4","RA_OF_ASC_NODE":"112.8977","FILE":"3485091","GP_ID":"205572489","MEAN_MOTION_DDOT":"0.0000000000000","OBJECT_ID":"2022-029AB","RCS_SIZE":"LARGE","TIME_SYSTEM":"UTC","ECCENTRICITY":"0.00016470","ELEMENT_SET_NO":"999"}];
